{
  "type": "FeatureCollection",
  "features": [
    {
      "type": "Feature",
      "properties": {
        "norad_id": 58701,
        "name": "TIANMU-1 16",
        "group": "weather",
        "lat": -30.294807001149337,
        "lon": -6.593299029525075,
        "alt_km": 495.8416952985817,
        "timestamp": "2025-12-22T23:36:20.342640+00:00",
        "meta_object_name": "TIANMU-1 16",
        "meta_object_id": "2024-004B",
        "meta_epoch": "2025-12-22T14:48:31.449024",
        "meta_mean_motion": 15.24556577,
        "meta_eccentricity": 0.00043495,
        "meta_inclination": 97.4562,
        "meta_ra_of_asc_node": 177.4302,
        "meta_arg_of_pericenter": 250.9779,
        "meta_mean_anomaly": 109.0987,
        "meta_ephemeris_type": 0,
        "meta_classification_type": "U",
        "meta_norad_cat_id": 58701,
        "meta_element_set_no": 999,
        "meta_rev_at_epoch": 10885,
        "meta_bstar": 0.00028034467,
        "meta_mean_motion_dot": 6.834e-05,
        "meta_mean_motion_ddot": 0,
        "tle_line1": "1 58701U 24004B   25356.61703066  .00006834  00000+0  28034-3 0  9991",
        "tle_line2": "2 58701  97.4562 177.4302 0004349 250.9779 109.0987 15.24556577108852"
      },
      "geometry": {
        "type": "Point",
        "coordinates": [
          -6.593299029525075,
          -30.294807001149337
        ]
      }
    },
    {
      "type": "Feature",
      "properties": {
        "norad_id": 58702,
        "name": "TIANMU-1 17",
        "group": "weather",
        "lat": -62.469091006136246,
        "lon": -167.23118025047705,
        "alt_km": 497.4856780727132,
        "timestamp": "2025-12-22T23:36:20.342650+00:00",
        "meta_object_name": "TIANMU-1 17",
        "meta_object_id": "2024-004C",
        "meta_epoch": "2025-12-22T14:25:56.125920",
        "meta_mean_motion": 15.24599563,
        "meta_eccentricity": 0.00035379,
        "meta_inclination": 97.4596,
        "meta_ra_of_asc_node": 177.8297,
        "meta_arg_of_pericenter": 252.3755,
        "meta_mean_anomaly": 107.7097,
        "meta_ephemeris_type": 0,
        "meta_classification_type": "U",
        "meta_norad_cat_id": 58702,
        "meta_element_set_no": 999,
        "meta_rev_at_epoch": 10884,
        "meta_bstar": 0.00029427501,
        "meta_mean_motion_dot": 7.186e-05,
        "meta_mean_motion_ddot": 0,
        "tle_line1": "1 58702U 24004C   25356.60134405  .00007186  00000+0  29428-3 0  9995",
        "tle_line2": "2 58702  97.4596 177.8297 0003537 252.3755 107.7097 15.24599563108843"
      },
      "geometry": {
        "type": "Point",
        "coordinates": [
          -167.23118025047705,
          -62.469091006136246
        ]
      }
    },
    {
      "type": "Feature",
      "properties": {
        "norad_id": 58703,
        "name": "TIANMU-1 18",
        "group": "weather",
        "lat": 27.259913490971748,
        "lon": 174.53573180221372,
        "alt_km": 492.5283013389435,
        "timestamp": "2025-12-22T23:36:20.342661+00:00",
        "meta_object_name": "TIANMU-1 18",
        "meta_object_id": "2024-004D",
        "meta_epoch": "2025-12-22T14:02:02.668704",
        "meta_mean_motion": 15.24584027,
        "meta_eccentricity": 0.00029016,
        "meta_inclination": 97.4614,
        "meta_ra_of_asc_node": 178.0106,
        "meta_arg_of_pericenter": 249.6242,
        "meta_mean_anomaly": 110.4684,
        "meta_ephemeris_type": 0,
        "meta_classification_type": "U",
        "meta_norad_cat_id": 58703,
        "meta_element_set_no": 999,
        "meta_rev_at_epoch": 10884,
        "meta_bstar": 0.00029430789,
        "meta_mean_motion_dot": 7.183e-05,
        "meta_mean_motion_ddot": 0,
        "tle_line1": "1 58703U 24004D   25356.58475311  .00007183  00000+0  29431-3 0  9998",
        "tle_line2": "2 58703  97.4614 178.0106 0002901 249.6242 110.4684 15.24584027108843"
      },
      "geometry": {
        "type": "Point",
        "coordinates": [
          174.53573180221372,
          27.259913490971748
        ]
      }
    },
    {
      "type": "Feature",
      "properties": {
        "norad_id": 58990,
        "name": "INSAT-3DS",
        "group": "weather",
        "lat": 0.055355065197323465,
        "lon": 167.95415112091143,
        "alt_km": 35787.37642147486,
        "timestamp": "2025-12-22T23:36:20.342672+00:00",
        "meta_object_name": "INSAT-3DS",
        "meta_object_id": "2024-033A",
        "meta_epoch": "2025-12-22T08:25:12.885312",
        "meta_mean_motion": 1.00271856,
        "meta_eccentricity": 0.00011263,
        "meta_inclination": 0.0555,
        "meta_ra_of_asc_node": 101.0552,
        "meta_arg_of_pericenter": 172.6391,
        "meta_mean_anomaly": 25.8743,
        "meta_ephemeris_type": 0,
        "meta_classification_type": "U",
        "meta_norad_cat_id": 58990,
        "meta_element_set_no": 999,
        "meta_rev_at_epoch": 4529,
        "meta_bstar": 0,
        "meta_mean_motion_dot": -1.35e-06,
        "meta_mean_motion_ddot": 0,
        "tle_line1": "1 58990U 24033A   25356.35084358 -.00000135  00000+0  00000+0 0  9998",
        "tle_line2": "2 58990   0.0555 101.0552 0001126 172.6391  25.8743  1.00271856 45290"
      },
      "geometry": {
        "type": "Point",
        "coordinates": [
          167.95415112091143,
          0.055355065197323465
        ]
      }
    },
    {
      "type": "Feature",
      "properties": {
        "norad_id": 59051,
        "name": "METEOR-M2 4",
        "group": "weather",
        "lat": 41.860013315477694,
        "lon": -54.13270810098239,
        "alt_km": 812.546815309368,
        "timestamp": "2025-12-22T23:36:20.342683+00:00",
        "meta_object_name": "METEOR-M2 4",
        "meta_object_id": "2024-039A",
        "meta_epoch": "2025-12-22T14:57:56.412576",
        "meta_mean_motion": 14.22402676,
        "meta_eccentricity": 0.00065228,
        "meta_inclination": 98.6781,
        "meta_ra_of_asc_node": 313.3781,
        "meta_arg_of_pericenter": 329.0868,
        "meta_mean_anomaly": 30.9925,
        "meta_ephemeris_type": 0,
        "meta_classification_type": "U",
        "meta_norad_cat_id": 59051,
        "meta_element_set_no": 999,
        "meta_rev_at_epoch": 9416,
        "meta_bstar": 2.9438425e-05,
        "meta_mean_motion_dot": 2.2e-07,
        "meta_mean_motion_ddot": 0,
        "tle_line1": "1 59051U 24039A   25356.62356959  .00000022  00000+0  29438-4 0  9997",
        "tle_line2": "2 59051  98.6781 313.3781 0006522 329.0868  30.9925 14.22402676 94160"
      },
      "geometry": {
        "type": "Point",
        "coordinates": [
          -54.13270810098239,
          41.860013315477694
        ]
      }
    },
    {
      "type": "Feature",
      "properties": {
        "norad_id": 60133,
        "name": "GOES 19",
        "group": "weather",
        "lat": 0.009255001606351837,
        "lon": 10.680540233186278,
        "alt_km": 35783.55002203003,
        "timestamp": "2025-12-22T23:36:20.342738+00:00",
        "meta_object_name": "GOES 19",
        "meta_object_id": "2024-119A",
        "meta_epoch": "2025-12-22T12:17:31.452576",
        "meta_mean_motion": 1.00271627,
        "meta_eccentricity": 9.416e-05,
        "meta_inclination": 0.0411,
        "meta_ra_of_asc_node": 205.7559,
        "meta_arg_of_pericenter": 116.5623,
        "meta_mean_anomaly": 238.1932,
        "meta_ephemeris_type": 0,
        "meta_classification_type": "U",
        "meta_norad_cat_id": 60133,
        "meta_element_set_no": 999,
        "meta_rev_at_epoch": 519,
        "meta_bstar": 0,
        "meta_mean_motion_dot": -2.27e-06,
        "meta_mean_motion_ddot": 0,
        "tle_line1": "1 60133U 24119A   25356.51216959 -.00000227  00000+0  00000+0 0  9999",
        "tle_line2": "2 60133   0.0411 205.7559 0000941 116.5623 238.1932  1.00271627  5191"
      },
      "geometry": {
        "type": "Point",
        "coordinates": [
          10.680540233186278,
          0.009255001606351837
        ]
      }
    },
    {
      "type": "Feature",
      "properties": {
        "norad_id": 65815,
        "name": "FENGYUN 3H",
        "group": "weather",
        "lat": -9.446150897292995,
        "lon": 114.89908128015556,
        "alt_km": 829.6719629599957,
        "timestamp": "2025-12-22T23:36:20.342754+00:00",
        "meta_object_name": "FENGYUN 3H",
        "meta_object_id": "2025-219A",
        "meta_epoch": "2025-12-22T14:15:37.134720",
        "meta_mean_motion": 14.19907094,
        "meta_eccentricity": 7.755e-05,
        "meta_inclination": 98.6599,
        "meta_ra_of_asc_node": 295.9711,
        "meta_arg_of_pericenter": 106.3555,
        "meta_mean_anomaly": 253.7707,
        "meta_ephemeris_type": 0,
        "meta_classification_type": "U",
        "meta_norad_cat_id": 65815,
        "meta_element_set_no": 999,
        "meta_rev_at_epoch": 1232,
        "meta_bstar": 5.2989085e-05,
        "meta_mean_motion_dot": 6.9e-07,
        "meta_mean_motion_ddot": 0,
        "tle_line1": "1 65815U 25219A   25356.59417980  .00000069  00000+0  52989-4 0  9999",
        "tle_line2": "2 65815  98.6599 295.9711 0000775 106.3555 253.7707 14.19907094 12324"
      },
      "geometry": {
        "type": "Point",
        "coordinates": [
          114.89908128015556,
          -9.446150897292995
        ]
      }
    }
  ]
}